{"type": "FeatureCollection", "features": [ {"type": "Feature", "properties": {"norad_id": 30930, "name": "FENGYUN 1C DEB", "group": "fengyun-1c-debris", "lat": -78.64676490639118, "lon": 143.68407598721484, "alt_km": 833.4569750016826, "timestamp": "2025-12-07T03:52:32.776847+00:00", "meta": {"OBJECT_NAME": "FENGYUN 1C DEB", "OBJECT_ID": "1999-025AZU", "EPOCH": "2025-12-06T13:59:57.437088", "MEAN_MOTION": 14.37370322, "ECCENTRICITY": 0.01095998, "INCLINATION": 98.2159, "RA_OF_ASC_NODE": 9.1503, "ARG_OF_PERICENTER": 124.6548, "MEAN_ANOMALY": 26.5333, "EPHEMERIS_TYPE": 0, "CLASSIFICATION_TYPE": "U", "NORAD_CAT_ID": 30930, "ELEMENT_SET_NO": 999, "REV_AT_EPOCH": 98243, "BSTAR": 0.00065144106, "MEAN_MOTION_DOT": 2.043e-05, "MEAN_MOTION_DDOT": 0}, "tle": {"line1": "1 30930U 99025AZU 25340.58330367  .00002043  00000+0  65144-3 0  9990", "line2": "2 30930  98.2159   9.1503 0109599 124.6548  26.5333 14.37370322982432"}}, "geometry": {"type": "Point", "coordinates": [143.68407598721484, -78.64676490639118]}}, {"type": "Feature", "properties": {"norad_id": 30931, "name": "FENGYUN 1C DEB", "group": "fengyun-1c-debris", "lat": 79.59198719740782, "lon": -79.71441517392694, "alt_km": 827.5451053975321, "timestamp": "2025-12-07T03:52:32.776858+00:00", "meta": {"OBJECT_NAME": "FENGYUN 1C DEB", "OBJECT_ID": "1999-025AZV", "EPOCH": "2025-12-02T03:47:35.105280", "MEAN_MOTION": 14.01483755, "ECCENTRICITY": 0.00934004, "INCLINATION": 99.1741, "RA_OF_ASC_NODE": 33.6379, "ARG_OF_PERICENTER": 70.6138, "MEAN_ANOMALY": 353.2512, "EPHEMERIS_TYPE": 0, "CLASSIFICATION_TYPE": "U", "NORAD_CAT_ID": 30931, "ELEMENT_SET_NO": 999, "REV_AT_EPOCH": 95777, "BSTAR": 0.00063376382, "MEAN_MOTION_DOT": 9.5e-06, "MEAN_MOTION_DDOT": 0}, "tle": {"line1": "1 30931U 99025AZV 25336.15804520  .00000950  00000+0  63376-3 0  9996", "line2": "2 30931  99.1741  33.6379 0093400  70.6138 353.2512 14.01483755957775"}}, "geometry": {"type": "Point", "coordinates": [-79.71441517392694, 79.59198719740782]}}, {"type": "Feature", "properties": {"norad_id": 30932, "name": "FENGYUN 1C DEB", "group": "fengyun-1c-debris", "lat": -55.754347164434705, "lon": 80.64258825968024, "alt_km": 797.3297120376055, "timestamp": "2025-12-07T03:52:32.776868+00:00", "meta": {"OBJECT_NAME": "FENGYUN 1C DEB", "OBJECT_ID": "1999-025AZW", "EPOCH": "2025-12-06T06:33:57.807072", "MEAN_MOTION": 14.26670328, "ECCENTRICITY": 0.0059168, "INCLINATION": 98.9096, "RA_OF_ASC_NODE": 273.0614, "ARG_OF_PERICENTER": 312.5313, "MEAN_ANOMALY": 47.0879, "EPHEMERIS_TYPE": 0, "CLASSIFICATION_TYPE": "U", "NORAD_CAT_ID": 30932, "ELEMENT_SET_NO": 999, "REV_AT_EPOCH": 96302, "BSTAR": 0.0052315372, "MEAN_MOTION_DOT": 0.00012859, "MEAN_MOTION_DDOT": 0}, "tle": {"line1": "1 30932U 99025AZW 25340.27358573  .00012859  00000+0  52315-2 0  9998", "line2": "2 30932  98.9096 273.0614 0059168 312.5313  47.0879 14.26670328963024"}}, "geometry": {"type": "Point", "coordinates": [80.64258825968024, -55.754347164434705]}}, {"type": "Feature", "properties": {"norad_id": 30933, "name": "FENGYUN 1C DEB", "group": "fengyun-1c-debris", "lat": -56.70608001148479, "lon": -22.584079140517613, "alt_km": 733.1328755702007, "timestamp": "2025-12-07T03:52:32.776878+00:00", "meta": {"OBJECT_NAME": "FENGYUN 1C DEB", "OBJECT_ID": "1999-025AZX", "EPOCH": "2025-12-06T10:27:21.311712", "MEAN_MOTION": 14.36189001, "ECCENTRICITY": 0.00777247, "INCLINATION": 99.047, "RA_OF_ASC_NODE": 322.6136, "ARG_OF_PERICENTER": 340.7534, "MEAN_ANOMALY": 171.3585, "EPHEMERIS_TYPE": 0, "CLASSIFICATION_TYPE": "U", "NORAD_CAT_ID": 30933, "ELEMENT_SET_NO": 999, "REV_AT_EPOCH": 95781, "BSTAR": 0.0095903608, "MEAN_MOTION_DOT": 0.00029025, "MEAN_MOTION_DDOT": 0}, "tle": {"line1": "1 30933U 99025AZX 25340.43566333  .00029025  00000+0  95904-2 0  9996", "line2": "2 30933  99.0470 322.6136 0077724 340.7534 171.3585 14.36189001957818"}}, "geometry": {"type": "Point", "coordinates": [-22.584079140517613, -56.70608001148479]}}, {"type": "Feature", "properties": {"norad_id": 30934, "name": "FENGYUN 1C DEB", "group": "fengyun-1c-debris", "lat": -61.16854988355061, "lon": 22.56550684213498, "alt_km": 1300.8772450387723, "timestamp": "2025-12-07T03:52:32.776889+00:00", "meta": {"OBJECT_NAME": "FENGYUN 1C DEB", "OBJECT_ID": "1999-025AZY", "EPOCH": "2025-12-06T14:13:28.670880", "MEAN_MOTION": 13.46716268, "ECCENTRICITY": 0.0340176, "INCLINATION": 98.7656, "RA_OF_ASC_NODE": 218.3434, "ARG_OF_PERICENTER": 97.165, "MEAN_ANOMALY": 266.8286, "EPHEMERIS_TYPE": 0, "CLASSIFICATION_TYPE": "U", "NORAD_CAT_ID": 30934, "ELEMENT_SET_NO": 999, "REV_AT_EPOCH": 91625, "BSTAR": 0.0026137105, "MEAN_MOTION_DOT": 2.212e-05, "MEAN_MOTION_DDOT": 0}, "tle": {"line1": "1 30934U 99025AZY 25340.59269295  .00002212  00000+0  26137-2 0  9992", "line2": "2 30934  98.7656 218.3434 0340176  97.1650 266.8286 13.46716268916251"}}, "geometry": {"type": "Point", "coordinates": [22.56550684213498, -61.16854988355061]}}, {"type": "Feature", "properties": {"norad_id": 30936, "name": "FENGYUN 1C DEB", "group": "fengyun-1c-debris", "lat": 4.771553117536642, "lon": -167.1766064871362, "alt_km": 838.5025417154766, "timestamp": "2025-12-07T03:52:32.776900+00:00", "meta": {"OBJECT_NAME": "FENGYUN 1C DEB", "OBJECT_ID": "1999-025BAA", "EPOCH": "2025-12-06T14:16:09.602976", "MEAN_MOTION": 14.23352159, "ECCENTRICITY": 0.00460291, "INCLINATION": 98.5822, "RA_OF_ASC_NODE": 11.5483, "ARG_OF_PERICENTER": 308.9868, "MEAN_ANOMALY": 203.0954, "EPHEMERIS_TYPE": 0, "CLASSIFICATION_TYPE": "U", "NORAD_CAT_ID": 30936, "ELEMENT_SET_NO": 999, "REV_AT_EPOCH": 97045, "BSTAR": 0.0008948662, "MEAN_MOTION_DOT": 2.008e-05, "MEAN_MOTION_DDOT": 0}, "tle": {"line1": "1 30936U 99025BAA 25340.59455559  .00002008  00000+0  89487-3 0  9995", "line2": "2 30936  98.5822  11.5483 0046029 308.9868 203.0954 14.23352159970455"}}, "geometry": {"type": "Point", "coordinates": [-167.1766064871362, 4.771553117536642]}}, {"type": "Feature", "properties": {"norad_id": 30937, "name": "FENGYUN 1C DEB", "group": "fengyun-1c-debris", "lat": -23.59824284237137, "lon": -150.4100645476503, "alt_km": 953.7199991526495, "timestamp": "2025-12-07T03:52:32.776910+00:00", "meta": {"OBJECT_NAME": "FENGYUN 1C DEB", "OBJECT_ID": "1999-025BAB", "EPOCH": "2025-12-06T09:47:28.244256", "MEAN_MOTION": 13.95582869, "ECCENTRICITY": 0.00758594, "INCLINATION": 99.0897, "RA_OF_ASC_NODE": 32.8572, "ARG_OF_PERICENTER": 70.3983, "MEAN_ANOMALY": 309.0754, "EPHEMERIS_TYPE": 0, "CLASSIFICATION_TYPE": "U", "NORAD_CAT_ID": 30937, "ELEMENT_SET_NO": 999, "REV_AT_EPOCH": 95628, "BSTAR": 2.3407516e-05, "MEAN_MOTION_DOT": -1.1e-07, "MEAN_MOTION_DDOT": 0}, "tle": {"line1": "1 30937U 99025BAB 25340.40796579 -.00000011  00000+0  23408-4 0  9991", "line2": "2 30937  99.0897  32.8572 0075859  70.3983 309.0754 13.95582869956281"}}, "geometry": {"type": "Point", "coordinates": [-150.4100645476503, -23.59824284237137]}}, {"type": "Feature", "properties": {"norad_id": 30938, "name": "FENGYUN 1C DEB", "group": "fengyun-1c-debris", "lat": 19.838537381746665, "lon": 177.94503922691746, "alt_km": 857.3080593226041, "timestamp": "2025-12-07T03:52:32.776921+00:00", "meta": {"OBJECT_NAME": "FENGYUN 1C DEB", "OBJECT_ID": "1999-025BAC", "EPOCH": "2025-12-06T14:12:00.489312", "MEAN_MOTION": 14.19805087, "ECCENTRICITY": 0.00462493, "INCLINATION": 98.591, "RA_OF_ASC_NODE": 354.2656, "ARG_OF_PERICENTER": 1.5816, "MEAN_ANOMALY": 127.19, "EPHEMERIS_TYPE": 0, "CLASSIFICATION_TYPE": "U", "NORAD_CAT_ID": 30938, "ELEMENT_SET_NO": 999, "REV_AT_EPOCH": 97032, "BSTAR": 0.00065435898, "MEAN_MOTION_DOT": 1.359e-05, "MEAN_MOTION_DDOT": 0}, "tle": {"line1": "1 30938U 99025BAC 25340.59167233  .00001359  00000+0  65436-3 0  9992", "line2": "2 30938  98.5910 354.2656 0046249   1.5816 127.1900 14.19805087970328"}}, "geometry": {"type": "Point", "coordinates": [177.94503922691746, 19.838537381746665]}}, {"type": "Feature", "properties": {"norad_id": 30940, "name": "FENGYUN 1C DEB", "group": "fengyun-1c-debris", "lat": -44.61098652958719, "lon": -9.639688012544935, "alt_km": 858.8648632545437, "timestamp": "2025-12-07T03:52:32.776931+00:00", "meta": {"OBJECT_NAME": "FENGYUN 1C DEB", "OBJECT_ID": "1999-025BAE", "EPOCH": "2025-12-05T06:06:10.312128", "MEAN_MOTION": 14.08285934, "ECCENTRICITY": 0.00414748, "INCLINATION": 98.6226, "RA_OF_ASC_NODE": 339.9288, "ARG_OF_PERICENTER": 24.7538, "MEAN_ANOMALY": 346.6881, "EPHEMERIS_TYPE": 0, "CLASSIFICATION_TYPE": "U", "NORAD_CAT_ID": 30940, "ELEMENT_SET_NO": 999, "REV_AT_EPOCH": 96027, "BSTAR": 0.000647699, "MEAN_MOTION_DOT": 1.074e-05, "MEAN_MOTION_DDOT": 0}, "tle": {"line1": "1 30940U 99025BAE 25339.25428602  .00001074  00000+0  64770-3 0  9990", "line2": "2 30940  98.6226 339.9288 0041474  24.7538 346.6881 14.08285934960276"}}, "geometry": {"type": "Point", "coordinates": [-9.639688012544935, -44.61098652958719]}}, {"type": "Feature", "properties": {"norad_id": 30941, "name": "FENGYUN 1C DEB", "group": "fengyun-1c-debris", "lat": -42.240071477551574, "lon": -154.0727763302683, "alt_km": 771.4497257953926, "timestamp": "2025-12-07T03:52:32.776942+00:00", "meta": {"OBJECT_NAME": "FENGYUN 1C DEB", "OBJECT_ID": "1999-025BAF", "EPOCH": "2025-12-05T13:28:35.110272", "MEAN_MOTION": 14.30932088, "ECCENTRICITY": 0.00342732, "INCLINATION": 98.5475, "RA_OF_ASC_NODE": 196.505, "ARG_OF_PERICENTER": 337.7359, "MEAN_ANOMALY": 22.2334, "EPHEMERIS_TYPE": 0, "CLASSIFICATION_TYPE": "U", "NORAD_CAT_ID": 30941, "ELEMENT_SET_NO": 999, "REV_AT_EPOCH": 96523, "BSTAR": 0.0035532932, "MEAN_MOTION_DOT": 9.364e-05, "MEAN_MOTION_DDOT": 0}, "tle": {"line1": "1 30941U 99025BAF 25339.56151748  .00009364  00000+0  35533-2 0  9993", "line2": "2 30941  98.5475 196.5050 0034273 337.7359  22.2334 14.30932088965238"}}, "geometry": {"type": "Point", "coordinates": [-154.0727763302683, -42.240071477551574]}}]}